IRIDIUM 39              
1 25042U 97069D   25248.29022245  .00001153  00000+0  29609-3 0  9999
2 25042  86.3984 176.8173 0019505  44.2350 316.0409 14.49312701460560
IRIDIUM 38              
1 25043U 97069E   25248.25339563  .00000812  00000+0  26109-3 0  9993
2 25043  86.4004 199.4833 0002440 134.6919 225.4478 14.38180875457461
IRIDIUM 42              
1 25077U 97077A   25248.28834324  .00000777  00000+0  25882-3 0  9994
2 25077  86.3995 205.7310 0001858 106.1799 253.9603 14.36411519452695
IRIDIUM 44              
1 25078U 97077B   25248.23502088  .00000837  00000+0  25816-3 0  9993
2 25078  86.4023 187.4873 0003877 103.7706 256.3925 14.40305694455220
IRIDIUM 45              
1 25104U 97082A   25247.98693251  .00027289  00000+0  90231-3 0  9996
2 25104  86.3611   9.0596 0111104  32.9382 327.8721 15.25352166464193
IRIDIUM 24              
1 25105U 97082B   25248.17427492  .00001019  00000+0  30336-3 0  9994
2 25105  86.3885  46.3453 0011831 163.6801 196.4783 14.42171231454745
IRIDIUM 51              
1 25262U 98018A   25248.29711471  .00053724  00000+0  10058-2 0  9992
2 25262  86.3839  15.9992 0075630 301.0286  58.3559 15.45310227459375
IRIDIUM 57              
1 25273U 98019B   25248.17161527  .00000527  00000+0  17503-3 0  9999
2 25273  86.3932 111.7528 0002088  89.7943 270.3493 14.35941434436262
